OBJECT_NAME,OBJECT_ID,EPOCH,MEAN_MOTION,ECCENTRICITY,INCLINATION,RA_OF_ASC_NODE,ARG_OF_PERICENTER,MEAN_ANOMALY,EPHEMERIS_TYPE,CLASSIFICATION_TYPE,NORAD_CAT_ID,ELEMENT_SET_NO,REV_AT_EPOCH,BSTAR,MEAN_MOTION_DOT,MEAN_MOTION_DDOT
SWARM B,2013-067A,2026-07-20T21:54:07.478784,15.28741141,.00021964,87.7466,332.0725,87.6110,272.5391,0,U,39451,999,68839,.82012976E-4,.2326E-4,0
SWARM A,2013-067B,2026-07-20T21:26:38.893344,15.51527840,.00033233,87.3302,43.7056,91.1864,268.9778,0,U,39452,999,71147,.12192223E-3,.7251E-4,0
SWARM C,2013-067C,2026-07-20T21:26:31.036992,15.51527187,.0003305,87.3302,42.2864,91.4965,268.6675,0,U,39453,999,71143,.12129699E-3,.7214E-4,0
BRITE-CA1 (TORONTO),2014-033L,2026-07-20T20:58:13.510272,14.72730089,.0078905,97.9778,330.1885,168.1114,192.1980,0,U,40020,999,64717,.11162505E-3,.695E-5,0
OCO 2,2014-035A,2026-07-20T20:55:35.510592,14.57135025,.00014049,98.2020,142.6537,80.6332,279.5025,0,U,40059,999,64095,.62116976E-4,.235E-5,0
BRITE-PL2 (HEWELIUSZ),2014-049B,2026-07-20T20:18:50.726016,14.94696779,.00137817,97.9121,314.1126,3.8262,356.3061,0,U,40119,999,64647,.1118261E-3,.1155E-4,0
MMS 1,2015-011A,2026-07-21T00:00:02.000160,0.28346501,.83016936,72.5203,348.3968,168.1455,147.7721,0,U,40482,999,137,0,-.133E-4,0
MMS 2,2015-011B,2026-07-21T00:00:02.000160,0.28346454,.83045097,72.5243,348.3957,168.1482,147.7585,0,U,40483,999,137,0,-.1331E-4,0
MMS 3,2015-011C,2026-07-21T00:00:02.000160,0.28346450,.83028763,72.5239,348.4076,168.1560,147.7326,0,U,40484,999,134,0,-.133E-4,0
MMS 4,2015-011D,2026-07-21T00:00:02.000160,0.28346502,.8302831,72.5195,348.3911,168.1659,147.7286,0,U,40485,999,137,0,-.133E-4,0
ASTROSAT,2015-052A,2026-07-20T17:27:44.649504,14.82557105,.00077219,5.9967,273.9311,157.6768,202.3696,0,U,40930,999,58481,.56352624E-4,.1134E-4,0
DAMPE,2015-078A,2026-07-20T23:06:18.977760,15.30861298,.00109397,97.4572,207.5986,324.0055,36.0448,0,U,41173,999,58971,.20088665E-4,.522E-5,0
PISAT,2016-059B,2026-07-20T22:17:20.690016,14.69036210,.00305658,97.8194,200.9345,97.3573,263.1108,0,U,41784,999,52469,.11001452E-3,.603E-5,0
HXMT (HUIYAN),2017-034A,2026-07-20T17:52:10.935264,15.18716792,.00315514,43.0152,356.1492,355.7121,4.3454,0,U,42758,999,50276,.13478751E-3,.2637E-4,0
FLYING LAPTOP,2017-042G,2026-07-20T21:53:10.623264,15.01335051,.00193905,97.4839,356.1821,14.3546,345.8225,0,U,42831,999,49151,.1526712E-3,.1915E-4,0
ZHANGHENG 1-01 (CSES-1),2018-015C,2026-07-20T22:59:09.955968,15.20654568,.0016831,97.6903,8.2913,145.7324,214.5000,0,U,43194,999,46977,.22801427E-3,.495E-4,0
SALSAT,2020-068K,2026-07-20T22:58:29.249472,15.30221969,.00098213,97.8866,207.0909,172.7459,187.3924,0,U,46495,999,32052,.18248446E-3,.5257E-4,0
IXPE,2021-121A,2026-07-20T22:00:01.999584,15.10518587,.00070105,0.2304,61.8588,228.0616,38.5155,0,U,49954,999,583,.41404359E-3,.7957E-4,0
SMILE,2026-109A,2026-07-13T23:01:31.580256,0.47500629,.83137076,70.0512,206.6048,286.9544,0.1879,0,U,69123,999,6,0,.936E-5,0
