SWARM B                 
1 39451U 13067A   26201.91258656  .00002326  00000+0  82013-4 0  9992
2 39451  87.7466 332.0725 0002196  87.6110 272.5391 15.28741141688392
SWARM A                 
1 39452U 13067B   26201.89350571  .00007251  00000+0  12192-3 0  9991
2 39452  87.3302  43.7056 0003323  91.1864 268.9778 15.51527840711478
SWARM C                 
1 39453U 13067C   26201.89341478  .00007214  00000+0  12130-3 0  9999
2 39453  87.3302  42.2864 0003305  91.4965 268.6675 15.51527187711438
BRITE-CA1 (TORONTO)     
1 40020U 14033L   26201.87376748  .00000695  00000+0  11163-3 0  9992
2 40020  97.9778 330.1885 0078905 168.1114 192.1980 14.72730089647170
OCO 2                   
1 40059U 14035A   26201.87193878  .00000235  00000+0  62117-4 0  9993
2 40059  98.2020 142.6537 0001404  80.6332 279.5025 14.57135025640957
BRITE-PL2 (HEWELIUSZ)   
1 40119U 14049B   26201.84642044  .00001155  00000+0  11183-3 0  9994
2 40119  97.9121 314.1126 0013781   3.8262 356.3061 14.94696779646478
MMS 1                   
1 40482U 15011A   26202.00002315 -.00001330  00000+0  00000+0 0  9995
2 40482  72.5203 348.3968 8301693 168.1455 147.7721  0.28346501  1379
MMS 2                   
1 40483U 15011B   26202.00002315 -.00001331  00000+0  00000+0 0  9997
2 40483  72.5243 348.3957 8304509 168.1482 147.7585  0.28346454  1376
MMS 3                   
1 40484U 15011C   26202.00002315 -.00001330  00000+0  00000+0 0  9997
2 40484  72.5239 348.4076 8302876 168.1560 147.7326  0.28346450  1343
MMS 4                   
1 40485U 15011D   26202.00002315 -.00001330  00000+0  00000+0 0  9998
2 40485  72.5195 348.3911 8302831 168.1659 147.7286  0.28346502  1378
ASTROSAT                
1 40930U 15052A   26201.72760011  .00001134  00000+0  56353-4 0  9998
2 40930   5.9967 273.9311 0007721 157.6768 202.3696 14.82557105584819
DAMPE                   
1 41173U 15078A   26201.96271965  .00000522  00000+0  20089-4 0  9994
2 41173  97.4572 207.5986 0010939 324.0055  36.0448 15.30861298589718
PISAT                   
1 41784U 16059B   26201.92871169  .00000603  00000+0  11001-3 0  9993
2 41784  97.8194 200.9345 0030565  97.3573 263.1108 14.69036210524699
HXMT (HUIYAN)           
1 42758U 17034A   26201.74457101  .00002637  00000+0  13479-3 0  9995
2 42758  43.0152 356.1492 0031551 355.7121   4.3454 15.18716792502769
FLYING LAPTOP           
1 42831U 17042G   26201.91192851  .00001915  00000+0  15267-3 0  9998
2 42831  97.4839 356.1821 0019390  14.3546 345.8225 15.01335051491514
ZHANGHENG 1-01 (CSES-1) 
1 43194U 18015C   26201.95775412  .00004950  00000+0  22801-3 0  9990
2 43194  97.6903   8.2913 0016831 145.7324 214.5000 15.20654568469772
SALSAT                  
1 46495U 20068K   26201.95728298  .00005257  00000+0  18248-3 0  9999
2 46495  97.8866 207.0909 0009821 172.7459 187.3924 15.30221969320520
IXPE                    
1 49954U 21121A   26201.91668981  .00007957  00000+0  41404-3 0  9990
2 49954   0.2304  61.8588 0007010 228.0616  38.5155 15.10518587  5835
SMILE                   
1 69123U 26109A   26194.95939329  .00000936  00000+0  00000+0 0  9996
2 69123  70.0512 206.6048 8313707 286.9544   0.1879  0.47500629    65
